[Satellite]
VERSION=1.1
NAME=IRIDIUM 168
NICKNAME=IRIDIUM 168
TLE1=1 43924U 19002C   19316.85990373  .00000045  00000-0  91101-5 0  9994
TLE2=2 43924  86.3946 279.9811 0002573  87.6268 272.5222 14.34217259 43783
STATUS=0
